GLOBALSTAR M070         
1 32264U 07048B   23238.44378865 -.00000087  00000+0  96083-4 0  9994
2 32264  51.9776 341.3222 0001119 102.5890 334.4959 12.62276856731203
GLOBALSTAR M066         
1 32265U 07048C   23238.33796108 -.00000082  00000+0  11970-3 0  9993
2 32265  51.9657 203.7295 0000852 283.9369 227.0186 12.62262776733411
GLOBALSTAR M079         
1 37188U 10054A   23237.85201660 -.00000098  00000+0  30634-4 0  9999
2 37188  52.0069 352.9986 0000567  97.7786  53.4978 12.62267006593617
GLOBALSTAR M074         
1 37189U 10054B   23237.80244279 -.00000094  00000+0  55782-4 0  9995
2 37189  52.0043 352.5746 0000746  99.7071  66.1450 12.62269004593535
GLOBALSTAR M076         
1 37190U 10054C   23238.35049479 -.00000099  00000+0  23896-4 0  9999
2 37190  52.0052 351.0145 0000676  51.4090 327.5351 12.62260284593683
GLOBALSTAR M077         
1 37191U 10054D   23237.40087903 -.00000082  00000+0  12060-3 0  9991
2 37191  52.0084 310.5757 0000563 105.4496 334.7028 12.62270326593570
